NORAD_CAT_ID,OBJECT_NAME,OBJECT_TYPE,EPOCH,MEAN_MOTION,ECCENTRICITY,INCLINATION,RA_OF_ASC_NODE,ARG_OF_PERICENTER,MEAN_ANOMALY,BSTAR,MEAN_MOTION_DOT,MEAN_MOTION_DDOT,TLE_LINE0,TLE_LINE1,TLE_LINE2,SEMIMAJOR_AXIS,PERIOD,APOGEE,PERIGEE,DECAYED
53855.0,STARLINK-4703,PAYLOAD,2022-10-26 06:00:00,15.73132727,0.0001585,53.2146,74.6379,44.0855,172.7263,0.00062087,0.00087172,0.0,0 STARLINK-4703,1 53855U 22114AP  22299.25001157  .00087172  00000-0  62087-3 0  9992,2 53855  53.2146  74.6379 0001585  44.0855 172.7263 15.73132727  6439,6728.087,91.537,351.01800000000014,348.886,0.0
53855.0,STARLINK-4703,PAYLOAD,2022-10-26 14:00:01,15.73209903,0.0001595,53.2166,72.9916,50.2714,255.4254,-0.00017343,-0.00024899,0.0,0 STARLINK-4703,1 53855U 22114AP  22299.58334491 -.00024899  00000-0 -17343-3 0  9992,2 53855  53.2166  72.9916 0001595  50.2714 255.4254 15.73209903  1304,6727.8669999999975,91.533,350.805,348.659,0.0
53855.0,STARLINK-4703,PAYLOAD,2022-10-26 22:00:00,15.73205436,0.0001551,53.217,71.344,49.4374,345.1841,-5.473099999999999e-06,-1.389e-05,0.0,0 STARLINK-4703,1 53855U 22114AP  22299.91667824 -.00001389  00000-0 -54731-5 0  9991,2 53855  53.2170  71.3440 0001551  49.4374 345.1841 15.73205436  6534,6727.88,91.533,350.788,348.701,0.0
53855.0,STARLINK-4703,PAYLOAD,2022-10-27 08:00:01,15.73245938,0.0001713,53.2156,69.2769,40.356,195.5277,-8.964e-05,-0.00013207,0.0,0 STARLINK-4703,1 53855U 22114AP  22300.33334491 -.00013207  00000-0 -89640-4 0  9999,2 53855  53.2156  69.2769 0001713  40.3560 195.5277 15.73245938  6604,6727.764,91.531,350.782,348.477,0.0
53855.0,STARLINK-4703,PAYLOAD,2022-10-27 14:00:01,15.73218067,0.0001931,53.2154,68.0414,37.9631,174.7197,0.00020042,0.00027622,0.0,0 STARLINK-4703,1 53855U 22114AP  22300.58335648  .00027622  00000-0  20042-3 0  9995,2 53855  53.2154  68.0414 0001931  37.9631 174.7197 15.73218067  1304,6727.844,91.532,351.0080000000001,348.41,0.0
53855.0,STARLINK-4703,PAYLOAD,2022-10-27 22:00:00,15.7327305,0.000199,53.2149,66.3921,33.6716,267.9075,-0.00067289,-0.00094308,0.0,0 STARLINK-4703,1 53855U 22114AP  22300.91667824 -.00094308  00000-0 -67289-3 0  9997,2 53855  53.2149  66.3921 0001990  33.6716 267.9075 15.73273050  1307,6727.687,91.529,350.891,348.213,0.0
53855.0,STARLINK-4703,PAYLOAD,2022-10-28 08:00:01,15.73225974,0.0001815,53.2153,64.3284,39.1538,103.7036,-0.00016601,-0.0002387999999999,0.0,0 STARLINK-4703,1 53855U 22114AP  22301.33335648 -.00023880  00000-0 -16601-3 0  9999,2 53855  53.2153  64.3284 0001815  39.1538 103.7036 15.73225974  6762,6727.821,91.532,350.907,348.465,0.0
53855.0,STARLINK-4703,PAYLOAD,2022-10-28 14:00:01,15.73170305,0.0001911,53.2153,63.093,31.4217,88.1341,0.0002484999999999,0.00034354,0.0,0 STARLINK-4703,1 53855U 22114AP  22301.58335648  .00034354  00000-0  24850-3 0  9997,2 53855  53.2153  63.0930 0001911  31.4217  88.1341 15.73170305  1309,6727.98,91.535,351.131,348.559,0.0
53855.0,STARLINK-4703,PAYLOAD,2022-10-28 22:00:01,15.73215531,0.0001986999999999,53.2153,61.4437,24.9816,183.4722,-0.00035546,-0.00050247,0.0,0 STARLINK-4703,1 53855U 22114AP  22301.91668981 -.00050247  00000-0 -35546-3 0  9998,2 53855  53.2153  61.4437 0001987  24.9816 183.4722 15.73215531  1301,6727.851,91.532,351.05300000000005,348.379,0.0
53855.0,STARLINK-4703,PAYLOAD,2022-10-29 12:00:00,15.73233797,0.0002065,53.2155,58.5567,29.4356,244.5692,2.5846e-05,3.013e-05,0.0,0 STARLINK-4703,1 53855U 22114AP  22302.50001157  .00003013  00000-0  25846-4 0  9990,2 53855  53.2155  58.5567 0002065  29.4356 244.5692 15.73233797  1300,6727.799,91.531,351.05300000000005,348.275,0.0
53855.0,STARLINK-4703,PAYLOAD,2022-10-29 22:00:01,15.73242227,0.0002198,53.2148,56.4949,24.6346,90.6363,-1.5501e-05,-2.801e-05,0.0,0 STARLINK-4703,1 53855U 22114AP  22302.91668981 -.00002801  00000-0 -15501-4 0  9992,2 53855  53.2148  56.4949 0002198  24.6346  90.6363 15.73242227  1309,6727.775,91.531,351.119,348.161,0.0
53855.0,STARLINK-4703,PAYLOAD,2022-10-30 00:00:00,15.73271009,0.0002095,53.2149,56.0821,24.7914,202.6491,-0.00044645,-0.00063007,0.0,0 STARLINK-4703,1 53855U 22114AP  22303.00001157 -.00063007  00000-0 -44645-3 0  9994,2 53855  53.2149  56.0821 0002095  24.7914 202.6491 15.73271009  7025,6727.693,91.529,350.967,348.148,0.0
53855.0,STARLINK-4703,PAYLOAD,2022-10-30 14:00:01,15.73233443,0.0002443,53.215,53.19600000000001,31.9265,261.2581,-0.00070786,-0.00098963,0.0,0 STARLINK-4703,1 53855U 22114AP  22303.58334491 -.00098963  00000-0 -70786-3 0  9991,2 53855  53.2150  53.1960 0002443  31.9265 261.2581 15.73233443  1301,6727.8,91.531,351.30800000000005,348.021,0.0
53855.0,STARLINK-4703,PAYLOAD,2022-10-30 22:00:01,15.7319391,0.0002396,53.2151,51.5461,24.2965,357.8657,-0.00032912,-0.00046551,0.0,0 STARLINK-4703,1 53855U 22114AP  22303.91668981 -.00046551  00000-0 -32912-3 0  9997,2 53855  53.2151  51.5461 0002396  24.2965 357.8657 15.73193910  1309,6727.913000000001,91.534,351.39,348.166,0.0
53855.0,STARLINK-4703,PAYLOAD,2022-10-31 14:00:01,15.73142468,0.0002440999999999,53.2151,48.2475,15.5892,184.2683,-0.00019948,-0.00028458,0.0,0 STARLINK-4703,1 53855U 22114AP  22304.58334491 -.00028458  00000-0 -19948-3 0  9997,2 53855  53.2151  48.2475 0002441  15.5892 184.2683 15.73142468  1303,6728.059,91.537,351.56699999999995,348.282,0.0
53855.0,STARLINK-4703,PAYLOAD,2022-10-31 22:00:01,15.73144683,0.0002426,53.2146,46.5974,12.9235,275.8422,0.00034484,0.00047941,0.0,0 STARLINK-4703,1 53855U 22114AP  22304.91668981  .00047941  00000-0  34484-3 0  9996,2 53855  53.2146  46.5974 0002426  12.9235 275.8422 15.73144683  1306,6728.053000000001,91.536,351.55,348.286,0.0
53855.0,STARLINK-4703,PAYLOAD,2022-11-01 00:00:02,15.73149314,0.0002333,53.2147,46.1845,13.8177,27.1648,0.00045627,0.00063767,0.0,0 STARLINK-4703,1 53855U 22114AP  22305.00002315  .00063767  00000-0  45627-3 0  9995,2 53855  53.2147  46.1845 0002333  13.8177  27.1648 15.73149314  7335,6728.04,91.536,351.474,348.335,0.0
53855.0,STARLINK-4703,PAYLOAD,2022-11-01 14:00:01,15.73205378,0.0002595,53.2149,43.299,18.292,88.2403,0.00018688,0.00025695,0.0,0 STARLINK-4703,1 53855U 22114AP  22305.58334491  .00025695  00000-0  18688-3 0  9996,2 53855  53.2149  43.2990 0002595  18.2920  88.2403 15.73205378  1302,6727.88,91.533,351.491,347.999,0.0
53855.0,STARLINK-4703,PAYLOAD,2022-11-01 22:00:00,15.73229843,0.0002647,53.2151,41.6486,18.6035,176.8616,-0.00029866,-0.00042388,0.0,0 STARLINK-4703,1 53855U 22114AP  22305.91667824 -.00042388  00000-0 -29866-3 0  9992,2 53855  53.2151  41.6486 0002647  18.6035 176.8616 15.73229843  7484,6727.81,91.531,351.456,347.894,0.0
53855.0,STARLINK-4703,PAYLOAD,2022-11-02 14:00:01,15.73223569,0.0002603,53.2167,38.3518,17.1637,356.2038,-0.00092555,-0.00128706,0.0,0 STARLINK-4703,1 53855U 22114AP  22306.58334491 -.00128706  00000-0 -92555-3 0  9991,2 53855  53.2167  38.3518 0002603  17.1637 356.2038 15.73223569  7586,6727.828,91.532,351.444,347.94199999999995,0.0
53855.0,STARLINK-4703,PAYLOAD,2022-11-02 22:00:00,15.73292452,0.0002832,53.2148,36.6995,15.8265,86.46799999999998,-0.00072195,-0.00101158,0.0,0 STARLINK-4703,1 53855U 22114AP  22306.91667824 -.00101158  00000-0 -72195-3 0  9997,2 53855  53.2148  36.6995 0002832  15.8265  86.4680 15.73292452  7640,6727.632,91.528,351.402,347.591,0.0
53855.0,STARLINK-4703,PAYLOAD,2022-11-03 14:00:01,15.73233267,0.0002945,53.2153,33.4012,14.4519,265.8054,-9.8027e-05,-0.0001438,0.0,0 STARLINK-4703,1 53855U 22114AP  22307.58334491 -.00014380  00000-0 -98027-4 0  9995,2 53855  53.2153  33.4012 0002945  14.4519 265.8054 15.73233267  1307,6727.8,91.531,351.647,347.684,0.0
53855.0,STARLINK-4703,PAYLOAD,2022-11-03 22:00:00,15.7325715,0.0002928,53.2156,31.7505,13.3251,355.8889,-0.00067244,-0.000942,0.0,0 STARLINK-4703,1 53855U 22114AP  22307.91667824 -.00094200  00000-0 -67244-3 0  9996,2 53855  53.2156  31.7505 0002928  13.3251 355.8889 15.73257150  1303,6727.732,91.53,351.56699999999995,347.62699999999984,0.0
53855.0,STARLINK-4703,PAYLOAD,2022-11-04 14:00:01,15.73175236,0.0003128,53.2169,28.4543,22.3013,164.7797,-0.0012300999999999,-0.00169704,0.0,0 STARLINK-4703,1 53855U 22114AP  22308.58334491 -.00169704  00000-0 -12301-2 0  9996,2 53855  53.2169  28.4543 0003128  22.3013 164.7797 15.73175236  7902,6727.965999999999,91.535,351.935,347.726,0.0
53855.0,STARLINK-4703,PAYLOAD,2022-11-04 22:00:01,15.73225174,0.0003016,53.2153,26.8015,14.7698,261.3401,-0.00086228,-0.00120092,0.0,0 STARLINK-4703,1 53855U 22114AP  22308.91668981 -.00120092  00000-0 -86228-3 0  9994,2 53855  53.2153  26.8015 0003016  14.7698 261.3401 15.73225174  7959,6727.823,91.532,351.718,347.659,0.0
53855.0,STARLINK-4703,PAYLOAD,2022-11-05 14:00:01,15.73290895,0.0003276999999999,53.2158,23.5043,14.0126,79.8374,-8.6814e-05,-0.0001284,0.0,0 STARLINK-4703,1 53855U 22114AP  22309.58335648 -.00012840  00000-0 -86814-4 0  9992,2 53855  53.2158  23.5043 0003277  14.0126  79.8374 15.73290895  1303,6727.636,91.528,351.706,347.296,0.0
53855.0,STARLINK-4703,PAYLOAD,2022-11-05 22:00:01,15.73276778,0.0003125,53.216,21.8531,8.6643,174.2262,-0.0011228,-0.00155882,0.0,0 STARLINK-4703,1 53855U 22114AP  22309.91668981 -.00155882  00000-0 -11228-2 0  9997,2 53855  53.2160  21.8531 0003125   8.6643 174.2262 15.73276778  8110,6727.676,91.529,351.644,347.439,0.0
53855.0,STARLINK-4703,PAYLOAD,2022-11-06 06:00:00,15.73171961,0.000309,53.2162,20.2031,10.3815,261.404,-0.00020427,-0.00029165,0.0,0 STARLINK-4703,1 53855U 22114AP  22310.25001157 -.00029165  00000-0 -20427-3 0  9998,2 53855  53.2162  20.2031 0003090  10.3815 261.4040 15.73171961  8168,6727.975,91.535,351.9190000000001,347.761,0.0
53855.0,STARLINK-4703,PAYLOAD,2022-11-06 14:00:01,15.73133714,0.0003427,53.216,18.5557,11.1258,349.5326,0.00046162,0.00064493,0.0,0 STARLINK-4703,1 53855U 22114AP  22310.58334491  .00064493  00000-0  46162-3 0  9999,2 53855  53.2160  18.5557 0003427  11.1258 349.5326 15.73133714  1312,6728.084,91.537,352.255,347.64300000000014,0.0
